NORAD_CAT_ID,OBJECT_NAME,OBJECT_TYPE,EPOCH,MEAN_MOTION,ECCENTRICITY,INCLINATION,RA_OF_ASC_NODE,ARG_OF_PERICENTER,MEAN_ANOMALY,BSTAR,MEAN_MOTION_DOT,MEAN_MOTION_DDOT,TLE_LINE0,TLE_LINE1,TLE_LINE2,SEMIMAJOR_AXIS,PERIOD,APOGEE,PERIGEE,DECAYED
49767.0,STARLINK-3192,PAYLOAD,2023-03-19 21:44:03,15.0884285,0.0001536,53.2174,333.3922,70.8101,289.3057,0.00015978,2.256e-05,0.0,0 STARLINK-3192,1 49767U 21115AV  23078.90559569  .00002256  00000-0  15978-3 0  9999,2 49767  53.2174 333.3922 0001536  70.8101 289.3057 15.08842850 71760,6917.872,95.437,540.799,538.674,0.0
49767.0,STARLINK-3192,PAYLOAD,2023-03-20 02:30:12,15.0885031,0.0001219,53.2172,332.4991,100.3521,259.7609,0.00022835,3.349e-05,0.0,0 STARLINK-3192,1 49767U 21115AV  23079.10431050  .00003349  00000-0  22835-3 0  9990,2 49767  53.2172 332.4991 0001219 100.3521 259.7609 15.08850310 72908,6917.849,95.437,540.557,538.871,0.0
49767.0,STARLINK-3192,PAYLOAD,2023-03-20 21:34:50,15.08845194,0.0001325,53.2166,328.9311,102.5923,257.5218,0.00022132,3.237e-05,0.0,0 STARLINK-3192,1 49767U 21115AV  23079.89919227  .00003237  00000-0  22132-3 0  9999,2 49767  53.2166 328.9311 0001325 102.5923 257.5218 15.08845194 73025,6917.865,95.437,540.646,538.813,0.0
49767.0,STARLINK-3192,PAYLOAD,2023-03-20 23:10:13,15.08846378,0.0001289,53.2171,328.6349,97.0181,263.0958,0.00024172,3.562e-05,0.0,0 STARLINK-3192,1 49767U 21115AV  23079.96543155  .00003562  00000-0  24172-3 0  9997,2 49767  53.2171 328.6349 0001289  97.0181 263.0958 15.08846378 71927,6917.861,95.437,540.618,538.834,0.0
49767.0,STARLINK-3192,PAYLOAD,2023-03-21 19:50:14,15.08840235,0.0001355,53.2172,324.7694,104.657,255.4572,9.3151e-05,1.195e-05,0.0,0 STARLINK-3192,1 49767U 21115AV  23080.82655605  .00001195  00000-0  93151-4 0  9992,2 49767  53.2172 324.7694 0001355 104.6570 255.4572 15.08840235 73160,6917.88,95.438,540.682,538.807,0.0
49767.0,STARLINK-3192,PAYLOAD,2023-03-22 21:16:24,15.08840901,0.0001193,53.2169,320.0148,97.9487,262.1641,6.4841e-05,7.44e-06,0.0,0 STARLINK-3192,1 49767U 21115AV  23081.88639724  .00000744  00000-0  64841-4 0  9996,2 49767  53.2169 320.0148 0001193  97.9487 262.1641 15.08840901 72217,6917.878,95.437,540.568,538.917,0.0
49767.0,STARLINK-3192,PAYLOAD,2023-03-23 02:02:33,15.08845626,0.0001201,53.2169,319.1178,90.663,269.45,0.0001851,2.66e-05,0.0,0 STARLINK-3192,1 49767U 21115AV  23082.08511400  .00002660  00000-0  18510-3 0  9999,2 49767  53.2169 319.1178 0001201  90.6630 269.4500 15.08845626 73358,6917.863,95.437,540.559,538.897,0.0
49767.0,STARLINK-3192,PAYLOAD,2023-03-23 21:07:11,15.08840039,0.0001332,53.216,315.5464,109.1833,250.9304,4.2239e-05,3.84e-06,0.0,0 STARLINK-3192,1 49767U 21115AV  23082.87999756  .00000384  00000-0  42239-4 0  9997,2 49767  53.2160 315.5464 0001332 109.1833 250.9304 15.08840039 73476,6917.88,95.438,540.667,538.824,0.0
49767.0,STARLINK-3192,PAYLOAD,2023-03-23 22:42:34,15.08847627,0.000123,53.2164,315.257,113.3758,246.7363,0.00025135,3.715e-05,0.0,0 STARLINK-3192,1 49767U 21115AV  23082.94623713  .00003715  00000-0  25135-3 0  9998,2 49767  53.2164 315.2570 0001230 113.3758 246.7363 15.08847627 72371,6917.857,95.437,540.573,538.871,0.0
49767.0,STARLINK-3192,PAYLOAD,2023-03-24 00:17:57,15.08856236,0.0001023,53.2165,314.9554,88.631,271.48,0.00030038,4.498e-05,0.0,0 STARLINK-3192,1 49767U 21115AV  23083.01247218  .00004498  00000-0  30038-3 0  9996,2 49767  53.2165 314.9554 0001023  88.6310 271.4800 15.08856236 73499,6917.831,95.437,540.403,538.988,0.0
49767.0,STARLINK-3192,PAYLOAD,2023-03-24 22:33:19,15.08887392,0.000116,53.2153,310.7892,101.3442,258.768,0.00078945,0.00012315,0.0,0 STARLINK-3192,1 49767U 21115AV  23083.93981046  .00012315  00000-0  78945-3 0  9997,2 49767  53.2153 310.7892 0001160 101.3442 258.7680 15.08887392 72520,6917.736,95.435,540.403,538.798,0.0
49767.0,STARLINK-3192,PAYLOAD,2023-03-25 01:44:05,15.08895663,0.0001156,53.2159,310.1988,103.4912,256.6209,0.00083751,0.00013086,0.0,0 STARLINK-3192,1 49767U 21115AV  23084.07228579  .00013086  00000-0  83751-3 0  9995,2 49767  53.2159 310.1988 0001156 103.4912 256.6209 15.08895663 73655,6917.71,95.434,540.375,538.776,0.0
49767.0,STARLINK-3192,PAYLOAD,2023-03-25 20:48:46,15.08808419,0.0001026,53.2159,306.6286,79.9229,280.1879,-0.00077635,-0.00012611,0.0,0 STARLINK-3192,1 49767U 21115AV  23084.86720144 -.00012611  00000-0 -77635-3 0  9996,2 49767  53.2159 306.6286 0001026  79.9229 280.1879 15.08808419 73771,6917.977,95.44,540.552,539.132,0.0
49767.0,STARLINK-3192,PAYLOAD,2023-03-25 22:24:09,15.08809479,0.0001095,53.216,306.3319,106.2973,253.8139,-0.00071833,-0.00011692,0.0,0 STARLINK-3192,1 49767U 21115AV  23084.93344173 -.00011692  00000-0 -71833-3 0  9990,2 49767  53.2160 306.3319 0001095 106.2973 253.8139 15.08809479 72674,6917.974,95.439,540.596,539.081,0.0
49767.0,STARLINK-3192,PAYLOAD,2023-03-26 20:39:33,15.08824978,0.0001222,53.2158,302.17,100.3841,259.7289,-7.7466e-05,-1.52e-05,0.0,0 STARLINK-3192,1 49767U 21115AV  23085.86080290 -.00001520  00000-0 -77466-4 0  9998,2 49767  53.2158 302.1700 0001222 100.3841 259.7289 15.08824978 73921,6917.926,95.439,540.637,538.946,0.0
49767.0,STARLINK-3192,PAYLOAD,2023-03-27 14:08:48,15.08842487,0.0001232,53.2159,298.8993,92.8902,267.2231,0.00076698,0.0001194,0.0,0 STARLINK-3192,1 49767U 21115AV  23086.58945314  .00011940  00000-0  76698-3 0  9995,2 49767  53.2159 298.8993 0001232  92.8902 267.2231 15.08842487 72926,6917.873,95.437,540.59,538.886,0.0
49767.0,STARLINK-3192,PAYLOAD,2023-03-27 20:30:20,15.08862945,0.0001133,53.216,297.7095,86.1139,273.9983,0.00088881,0.00013895,0.0,0 STARLINK-3192,1 49767U 21115AV  23086.85440737  .00013895  00000-0  88881-3 0  9992,2 49767  53.2160 297.7095 0001133  86.1139 273.9983 15.08862945 74074,6917.81,95.436,540.459,538.891,0.0
49767.0,STARLINK-3192,PAYLOAD,2023-03-27 23:41:06,15.08874328,0.0001101,53.2159,297.1139,85.8605,274.2513,0.0011416,0.00017944,0.0,0 STARLINK-3192,1 49767U 21115AV  23086.98688388  .00017944  00000-0  11416-2 0  9990,2 49767  53.2159 297.1139 0001101  85.8605 274.2513 15.08874328 74097,6917.775,95.435,540.402,538.879,0.0
49767.0,STARLINK-3192,PAYLOAD,2023-03-28 20:21:06,15.08881406,0.0001207,53.2156,293.249,69.4997,290.6125,0.00082009,0.00012803,0.0,0 STARLINK-3192,1 49767U 21115AV  23087.84799014  .00012803  00000-0  82009-3 0  9991,2 49767  53.2156 293.2490 0001207  69.4997 290.6125 15.08881406 73118,6917.754,95.435,540.454,538.784,0.0
49767.0,STARLINK-3192,PAYLOAD,2023-03-28 23:31:52,15.08891538,0.000126,53.2158,292.6541,66.1874,293.925,0.0013019,0.00020522,0.0,0 STARLINK-3192,1 49767U 21115AV  23087.98046611  .00020522  00000-0  13019-2 0  9995,2 49767  53.2158 292.6541 0001260  66.1874 293.9250 15.08891538 74244,6917.723,95.434,540.459,538.716,0.0
49767.0,STARLINK-3192,PAYLOAD,2023-03-29 20:11:53,15.08832842,0.0001098,53.2161,288.787,84.4184,275.6934,0.00014339,1.995e-05,0.0,0 STARLINK-3192,1 49767U 21115AV  23088.84159508  .00001995  00000-0  14339-3 0  9991,2 49767  53.2161 288.7870 0001098  84.4184 275.6934 15.08832842 74378,6917.902,95.438,540.527,539.008,0.0
49767.0,STARLINK-3192,PAYLOAD,2023-03-30 16:51:55,15.08838117,0.0001088,53.2143,284.9217,75.6527,284.4586,0.00011542,1.549e-05,0.0,0 STARLINK-3192,1 49767U 21115AV  23089.70272053  .00001549  00000-0  11542-3 0  9996,2 49767  53.2143 284.9217 0001088  75.6527 284.4586 15.08838117 73396,6917.886,95.438,540.504,538.998,0.0
49767.0,STARLINK-3192,PAYLOAD,2023-03-31 05:35:00,15.08828699,0.0001229,53.2155,282.545,99.3038,260.8093,0.00059384,9.173e-05,0.0,0 STARLINK-3192,1 49767U 21115AV  23090.23264809  .00009173  00000-0  59384-3 0  9993,2 49767  53.2155 282.5450 0001229  99.3038 260.8093 15.08828699 74586,6917.915,95.438,540.63,538.93,0.0
49767.0,STARLINK-3192,PAYLOAD,2023-03-31 19:53:28,15.0885131,0.0001076,53.2156,279.8676,102.1038,258.0074,0.00061713,9.55e-05,0.0,0 STARLINK-3192,1 49767U 21115AV  23090.82880249  .00009550  00000-0  61713-3 0  9998,2 49767  53.2156 279.8676 0001076 102.1038 258.0074 15.08851310 74673,6917.846,95.437,540.455,538.966,0.0
49767.0,STARLINK-3192,PAYLOAD,2023-04-01 05:25:47,15.08839207,6.59e-05,53.2156,278.0824,83.599,276.5077,9.9639e-05,1.298e-05,0.0,0 STARLINK-3192,1 49767U 21115AV  23091.22624257  .00001298  00000-0  99639-4 0  9998,2 49767  53.2156 278.0824 0000659  83.5990 276.5077 15.08839207 74730,6917.883,95.438,540.204,539.292,0.0
49767.0,STARLINK-3192,PAYLOAD,2023-04-01 19:44:16,15.08833042,0.0001136,53.2147,275.4082,80.1019,280.0102,0.00028105,4.187e-05,0.0,0 STARLINK-3192,1 49767U 21115AV  23091.82240927  .00004187  00000-0  28105-3 0  9991,2 49767  53.2147 275.4082 0001136  80.1019 280.0102 15.08833042 73710,6917.902,95.438,540.553,538.981,0.0
49767.0,STARLINK-3192,PAYLOAD,2023-04-02 05:16:35,15.08837041,0.0001223,53.2143,273.6226,74.8272,285.2856,0.00057213,8.829e-05,0.0,0 STARLINK-3192,1 49767U 21115AV  23092.21985152  .00008829  00000-0  57213-3 0  9990,2 49767  53.2143 273.6226 0001223  74.8272 285.2856 15.08837041 74889,6917.889,95.438,540.6,538.908,0.0
49767.0,STARLINK-3192,PAYLOAD,2023-04-02 11:38:07,15.08843016,0.0001228,53.214,272.4328,71.2711,288.8414,0.00074949,0.00011661,0.0,0 STARLINK-3192,1 49767U 21115AV  23092.48481170  .00011661  00000-0  74949-3 0  9993,2 49767  53.2140 272.4328 0001228  71.2711 288.8414 15.08843016 73810,6917.871,95.437,540.586,538.887,0.0
49767.0,STARLINK-3192,PAYLOAD,2023-04-02 19:35:03,15.08851783,0.00012,53.2143,270.9457,70.0937,290.0184,0.00077601,0.00012088,0.0,0 STARLINK-3192,1 49767U 21115AV  23092.81600924  .00012088  00000-0  77601-3 0  9992,2 49767  53.2143 270.9457 0001200  70.0937 290.0184 15.08851783 73860,6917.844,95.437,540.54,538.879,0.0
49767.0,STARLINK-3192,PAYLOAD,2023-04-03 11:28:54,15.08843875,0.0001341,53.2147,267.974,69.427,290.6866,0.00031765,4.772e-05,0.0,0 STARLINK-3192,1 49767U 21115AV  23093.47840962  .00004772  00000-0  31765-3 0  9995,2 49767  53.2147 267.9740 0001341  69.4270 290.6866 15.08843875 75074,6917.869,95.437,540.661,538.806,0.0
